[{"OBJECT_NAME":"STARLINK-31093","OBJECT_ID":"2024-002N","EPOCH":"2026-03-09T16:21:38.970720","MEAN_MOTION":15.30187839,"ECCENTRICITY":0.00010032,"INCLINATION":53.1587,"RA_OF_ASC_NODE":230.0175,"ARG_OF_PERICENTER":97.7695,"MEAN_ANOMALY":262.342,"EPHEMERIS_TYPE":0,"CLASSIFICATION_TYPE":"U","NORAD_CAT_ID":58717,"ELEMENT_SET_NO":999,"REV_AT_EPOCH":12201,"BSTAR":5.386983e-6,"MEAN_MOTION_DOT":-1.99e-6,"MEAN_MOTION_DDOT":0},{"OBJECT_NAME":"CZ-4C R\/B","OBJECT_ID":"2022-069B","EPOCH":"2026-03-09T22:08:25.149120","MEAN_MOTION":15.31915595,"ECCENTRICITY":0.00471341,"INCLINATION":97.9961,"RA_OF_ASC_NODE":42.6953,"ARG_OF_PERICENTER":87.2467,"MEAN_ANOMALY":273.4166,"EPHEMERIS_TYPE":0,"CLASSIFICATION_TYPE":"U","NORAD_CAT_ID":52913,"ELEMENT_SET_NO":999,"REV_AT_EPOCH":20482,"BSTAR":0.00043675127,"MEAN_MOTION_DOT":0.00013855,"MEAN_MOTION_DDOT":0}]
